CRE (WAAS/PRN 138)      
1 28868U 05036A   24157.61012542 -.00000072  00000+0  00000+0 0  9994
2 28868   2.4035  85.7794 0003445 351.4149 289.6642  1.00271793 39011
IOR-W (EGNOS/PRN 126)   
1 28899U 05044A   24157.55466090 -.00000261  00000+0  00000+0 0  9991
2 28899   4.1780  42.4069 0001737  44.3797 150.8436  1.00271051 68081
GSAT-8 (GAGAN/PRN 127)  
1 37605U 11022A   24157.21490402  .00000088  00000+0  00000+0 0  9992
2 37605   0.2094  91.9909 0003088 199.1969  95.3752  1.00271445 45776
LUCH 5A (SDCM/PRN 140)  
1 37951U 11074B   24157.59487399 -.00000051  00000+0  00000+0 0  9996
2 37951   6.8566  85.1579 0003796   1.1008 189.2556  1.00270655 45616
SES-5 (EGNOS/PRN 136)   
1 38652U 12036A   24156.95144111  .00000037  00000+0  00000+0 0  9998
2 38652   0.0359 317.6475 0001670 116.0572 167.6558  1.00270834 37049
GSAT-10 (GAGAN/PRN 128) 
1 38779U 12051B   24156.90945828 -.00000161  00000+0  00000+0 0  9993
2 38779   0.0215 257.7009 0001065  83.0219 323.5223  1.00270341 42665
LUCH 5B (SDCM/PRN 125)  
1 38977U 12061A   24157.10188286 -.00000139  00000+0  00000+0 0  9999
2 38977   8.8635  56.8151 0003397  88.0489 129.5285  1.00271748 42166
ASTRA 5B (EGNOS/PRN 123)
1 39617U 14011B   24156.13509799  .00000141  00000+0  00000+0 0  9998
2 39617   0.0424 337.2248 0001890  90.5588 257.4199  1.00273434 37214
LUCH 5V (SDCM/PRN 141)  
1 39727U 14023A   24157.60122759 -.00000268  00000+0  00000+0 0  9994
2 39727   3.2699  76.1259 0001755  46.3619  83.2288  1.00270335 36928
GSAT-15 (GAGAN/PRN 139) 
1 41028U 15065A   24157.07939712 -.00000254  00000+0  00000+0 0  9999
2 41028   0.0188 293.0863 0003640 134.8771 308.1030  1.00268430 31361
E 117 W B (WAAS/PRN 131)
1 41589U 16038B   24156.40665442 -.00000007  00000+0  00000+0 0  9990
2 41589   0.0084 151.2065 0000260 313.0092 178.5171  1.00270458 29229
SES-15 (WAAS/PRN 133)   
1 42709U 17026A   24156.74885942  .00000064  00000+0  00000+0 0  9991
2 42709   0.0338  43.0779 0000100   4.4461 346.5894  1.00269736 26694
QZS-2 (QZSS/PRN 194)    
1 42738U 17028A   24157.59123362 -.00000193  00000+0  00000+0 0  9994
2 42738  40.5915 253.9288 0760365 269.1173  84.7729  1.00287271   198
QZS-3 (QZSS/PRN 199)    
1 42917U 17048A   24157.62410763 -.00000346  00000+0  00000+0 0  9993
2 42917   0.0579 162.0342 0001913 277.6364 166.5045  1.00266760 24824
QZS-4 (QZSS/PRN 195)    
1 42965U 17062A   24157.31287542 -.00000361  00000+0  00000+0 0  9992
2 42965  40.5190 352.9369 0746921 271.3259 239.8896  1.00255891 24374
BEIDOU-3 G1 (PRN 130)   
1 43683U 18085A   24157.58958019 -.00000277  00000+0  00000+0 0  9995
2 43683   2.1643 110.0174 0004066 354.8250 141.7992  1.00265790 20622
BEIDOU-3 G2 (PRN 144)   
1 45344U 20017A   24157.57767241 -.00000140  00000+0  00000+0 0  9992
2 45344   2.3025  29.2087 0000991 104.2052  49.0586  1.00272179 15822
BEIDOU-3 G3 (PRN 143)   
1 45807U 20040A   24157.61474891 -.00000352  00000+0  00000+0 0  9998
2 45807   0.7592  40.9273 0005531 284.4306 260.9339  1.00277306 14637
GALAXY 30 (WAAS/PRN 135)
1 46114U 20056C   24157.59522826  .00000040  00000+0  00000+0 0  9999
2 46114   0.0159  19.5459 0001905  50.7746 273.4471  1.00269779 13856
QZS-1R (QZSS/PRN 196)   
1 49336U 21096A   24157.16070500 -.00000282  00000+0  00000+0 0  9992
2 49336  35.9213  90.7100 0755397 271.2988  84.6068  1.00263115  9572
